STARLINK-1606
1 46144U 20057AD  26090.91671296  .00050659  00000+0  42808-3 0  9990
2 46144  53.0426 147.0645 0005331  21.0974 140.6485 15.69256722  5898
